[{"OBJECT_NAME":"GPS BIIR-2  (PRN 13)","OBJECT_ID":"1997-035A","EPOCH":"2023-04-26T11:17:11.986368","MEAN_MOTION":2.00564276,"ECCENTRICITY":0.0066935,"INCLINATION":55.5609,"RA_OF_ASC_NODE":143.4545,"ARG_OF_PERICENTER":50.9567,"MEAN_ANOMALY":309.6898,"EPHEMERIS_TYPE":0,"CLASSIFICATION_TYPE":"U","NORAD_CAT_ID":24876,"ELEMENT_SET_NO":999,"REV_AT_EPOCH":18893,"BSTAR":0,"MEAN_MOTION_DOT":3.3e-7,"MEAN_MOTION_DDOT":0},{"OBJECT_NAME":"GPS BIIR-4  (PRN 20)","OBJECT_ID":"2000-025A","EPOCH":"2023-04-26T14:39:45.884736","MEAN_MOTION":2.00548545,"ECCENTRICITY":0.0042806,"INCLINATION":54.323,"RA_OF_ASC_NODE":65.9647,"ARG_OF_PERICENTER":197.9253,"MEAN_ANOMALY":350.3609,"EPHEMERIS_TYPE":0,"CLASSIFICATION_TYPE":"U","NORAD_CAT_ID":26360,"ELEMENT_SET_NO":999,"REV_AT_EPOCH":16825,"BSTAR":0,"MEAN_MOTION_DOT":-4.1e-7,"MEAN_MOTION_DDOT":0},{"OBJECT_NAME":"GPS BIIR-9  (PRN 21)","OBJECT_ID":"2003-010A","EPOCH":"2023-04-26T08:13:13.350432","MEAN_MOTION":2.00569119,"ECCENTRICITY":0.0249205,"INCLINATION":55.1021,"RA_OF_ASC_NODE":10.6565,"ARG_OF_PERICENTER":315.3509,"MEAN_ANOMALY":236.695,"EPHEMERIS_TYPE":0,"CLASSIFICATION_TYPE":"U","NORAD_CAT_ID":27704,"ELEMENT_SET_NO":999,"REV_AT_EPOCH":14708,"BSTAR":0,"MEAN_MOTION_DOT":-1.11e-6,"MEAN_MOTION_DDOT":0},{"OBJECT_NAME":"GPS BIIR-13 (PRN 02)","OBJECT_ID":"2004-045A","EPOCH":"2023-04-26T22:20:23.966016","MEAN_MOTION":1.99881999,"ECCENTRICITY":0.017655,"INCLINATION":55.4275,"RA_OF_ASC_NODE":10.8973,"ARG_OF_PERICENTER":285.7782,"MEAN_ANOMALY":69.2305,"EPHEMERIS_TYPE":0,"CLASSIFICATION_TYPE":"U","NORAD_CAT_ID":28474,"ELEMENT_SET_NO":999,"REV_AT_EPOCH":13541,"BSTAR":0,"MEAN_MOTION_DOT":-1.1e-6,"MEAN_MOTION_DDOT":0},{"OBJECT_NAME":"CRE (WAAS\/PRN 138)","OBJECT_ID":"2005-036A","EPOCH":"2023-04-27T05:09:08.610336","MEAN_MOTION":1.00271911,"ECCENTRICITY":0.000246,"INCLINATION":1.3582,"RA_OF_ASC_NODE":90.4657,"ARG_OF_PERICENTER":322.7892,"MEAN_ANOMALY":131.6893,"EPHEMERIS_TYPE":0,"CLASSIFICATION_TYPE":"U","NORAD_CAT_ID":28868,"ELEMENT_SET_NO":999,"REV_AT_EPOCH":6465,"BSTAR":0,"MEAN_MOTION_DOT":-7.5e-7,"MEAN_MOTION_DDOT":0},{"OBJECT_NAME":"IOR-W (EGNOS\/PRN 126)","OBJECT_ID":"2005-044A","EPOCH":"2023-04-26T20:24:42.566688","MEAN_MOTION":1.0027218,"ECCENTRICITY":0.0002677,"INCLINATION":3.7652,"RA_OF_ASC_NODE":39.9686,"ARG_OF_PERICENTER":357.9403,"MEAN_ANOMALY":186.7355,"EPHEMERIS_TYPE":0,"CLASSIFICATION_TYPE":"U","NORAD_CAT_ID":28899,"ELEMENT_SET_NO":999,"REV_AT_EPOCH":6401,"BSTAR":0,"MEAN_MOTION_DOT":1.0e-7,"MEAN_MOTION_DDOT":0},{"OBJECT_NAME":"GPS BIIRM-2 (PRN 31)","OBJECT_ID":"2006-042A","EPOCH":"2023-04-26T22:23:39.166080","MEAN_MOTION":2.00501637,"ECCENTRICITY":0.0104714,"INCLINATION":54.6876,"RA_OF_ASC_NODE":196.8257,"ARG_OF_PERICENTER":29.0217,"MEAN_ANOMALY":99.2905,"EPHEMERIS_TYPE":0,"CLASSIFICATION_TYPE":"U","NORAD_CAT_ID":29486,"ELEMENT_SET_NO":999,"REV_AT_EPOCH":12138,"BSTAR":0,"MEAN_MOTION_DOT":-1.8e-7,"MEAN_MOTION_DDOT":0},{"OBJECT_NAME":"GPS BIIRM-3 (PRN 12)","OBJECT_ID":"2006-052A","EPOCH":"2023-04-26T04:33:24.818112","MEAN_MOTION":2.00570151,"ECCENTRICITY":0.0086549,"INCLINATION":55.3342,"RA_OF_ASC_NODE":259.5795,"ARG_OF_PERICENTER":77.8397,"MEAN_ANOMALY":283.1033,"EPHEMERIS_TYPE":0,"CLASSIFICATION_TYPE":"U","NORAD_CAT_ID":29601,"ELEMENT_SET_NO":999,"REV_AT_EPOCH":12038,"BSTAR":0,"MEAN_MOTION_DOT":-9.0e-8,"MEAN_MOTION_DDOT":0},{"OBJECT_NAME":"GPS BIIRM-4 (PRN 15)","OBJECT_ID":"2007-047A","EPOCH":"2023-04-25T11:54:27.900864","MEAN_MOTION":2.0055894,"ECCENTRICITY":0.014606,"INCLINATION":53.4149,"RA_OF_ASC_NODE":127.6048,"ARG_OF_PERICENTER":67.8527,"MEAN_ANOMALY":293.7212,"EPHEMERIS_TYPE":0,"CLASSIFICATION_TYPE":"U","NORAD_CAT_ID":32260,"ELEMENT_SET_NO":999,"REV_AT_EPOCH":11377,"BSTAR":0,"MEAN_MOTION_DOT":2.4e-7,"MEAN_MOTION_DDOT":0},{"OBJECT_NAME":"COSMOS 2433 (720)","OBJECT_ID":"2007-052A","EPOCH":"2023-04-26T06:16:54.454368","MEAN_MOTION":2.13104097,"ECCENTRICITY":0.0001751,"INCLINATION":66.049,"RA_OF_ASC_NODE":354.2871,"ARG_OF_PERICENTER":301.8506,"MEAN_ANOMALY":175.1406,"EPHEMERIS_TYPE":0,"CLASSIFICATION_TYPE":"U","NORAD_CAT_ID":32275,"ELEMENT_SET_NO":999,"REV_AT_EPOCH":12063,"BSTAR":0,"MEAN_MOTION_DOT":-8.2e-7,"MEAN_MOTION_DDOT":0},{"OBJECT_NAME":"GPS BIIRM-5 (PRN 29)","OBJECT_ID":"2007-062A","EPOCH":"2023-04-26T21:58:54.867648","MEAN_MOTION":2.00551759,"ECCENTRICITY":0.0023001,"INCLINATION":55.9747,"RA_OF_ASC_NODE":319.8919,"ARG_OF_PERICENTER":139.5222,"MEAN_ANOMALY":296.8342,"EPHEMERIS_TYPE":0,"CLASSIFICATION_TYPE":"U","NORAD_CAT_ID":32384,"ELEMENT_SET_NO":999,"REV_AT_EPOCH":11250,"BSTAR":0,"MEAN_MOTION_DOT":-5.3e-7,"MEAN_MOTION_DDOT":0},{"OBJECT_NAME":"COSMOS 2434 (721)","OBJECT_ID":"2007-065A","EPOCH":"2023-04-26T07:33:22.638240","MEAN_MOTION":2.13103146,"ECCENTRICITY":0.0003541,"INCLINATION":64.3467,"RA_OF_ASC_NODE":230.7597,"ARG_OF_PERICENTER":81.6074,"MEAN_ANOMALY":326.8171,"EPHEMERIS_TYPE":0,"CLASSIFICATION_TYPE":"U","NORAD_CAT_ID":32393,"ELEMENT_SET_NO":999,"REV_AT_EPOCH":11934,"BSTAR":0,"MEAN_MOTION_DOT":-6.0e-8,"MEAN_MOTION_DDOT":0},{"OBJECT_NAME":"COSMOS 2436 (723)","OBJECT_ID":"2007-065C","EPOCH":"2023-04-26T11:28:41.818656","MEAN_MOTION":2.13103001,"ECCENTRICITY":0.0015955,"INCLINATION":64.3529,"RA_OF_ASC_NODE":230.8153,"ARG_OF_PERICENTER":4.4883,"MEAN_ANOMALY":304.9205,"EPHEMERIS_TYPE":0,"CLASSIFICATION_TYPE":"U","NORAD_CAT_ID":32395,"ELEMENT_SET_NO":999,"REV_AT_EPOCH":11927,"BSTAR":0,"MEAN_MOTION_DOT":-7.0e-8,"MEAN_MOTION_DDOT":0}]
