NAVSTAR 43 (USA 132)    
1 24876U 97035A   23116.47027762  .00000033  00000+0  00000+0 0  9993
2 24876  55.5609 143.4545 0066935  50.9567 309.6898  2.00564276188930
NAVSTAR 47 (USA 150)    
1 26360U 00025A   23116.61094774 -.00000041  00000+0  00000+0 0  9999
2 26360  54.3230  65.9647 0042806 197.9253 350.3609  2.00548545168250
NAVSTAR 52 (USA 168)    
1 27704U 03010A   23116.34251563 -.00000111  00000+0  00000+0 0  9998
2 27704  55.1021  10.6565 0249205 315.3509 236.6950  2.00569119147081
NAVSTAR 56 (USA 180)    
1 28474U 04045A   23116.93083294 -.00000110  00000+0  00000+0 0  9990
2 28474  55.4275  10.8973 0176550 285.7782  69.2305  1.99881999135418
ANIK F1R                
1 28868U 05036A   23117.21468299 -.00000075  00000+0  00000+0 0  9992
2 28868   1.3582  90.4657 0002460 322.7892 131.6893  1.00271911 64653
INMARSAT 4-F2           
1 28899U 05044A   23116.85049267  .00000010  00000+0  00000+0 0  9992
2 28899   3.7652  39.9686 0002677 357.9403 186.7355  1.00272180 64012
NAVSTAR 58 (USA 190)    
1 29486U 06042A   23116.93309220 -.00000018  00000+0  00000+0 0  9990
2 29486  54.6876 196.8257 0104714  29.0217  99.2905  2.00501637121386
NAVSTAR 59 (USA 192)    
1 29601U 06052A   23116.18987058 -.00000009  00000+0  00000+0 0  9998
2 29601  55.3342 259.5795 0086549  77.8397 283.1033  2.00570151120382
NAVSTAR 60 (USA 196)    
1 32260U 07047A   23115.49615626  .00000024  00000+0  00000+0 0  9996
2 32260  53.4149 127.6048 0146060  67.8527 293.7212  2.00558940113779
COSMOS 2433 [GLONASS-M] 
1 32275U 07052A   23116.26174137 -.00000082  00000+0  00000+0 0  9996
2 32275  66.0490 354.2871 0001751 301.8506 175.1406  2.13104097120636
NAVSTAR 61 (USA 199)    
1 32384U 07062A   23116.91591282 -.00000053  00000+0  00000+0 0  9992
2 32384  55.9747 319.8919 0023001 139.5222 296.8342  2.00551759112506
COSMOS 2434 [GLONASS-M] 
1 32393U 07065A   23116.31484535 -.00000006  00000+0  00000+0 0  9999
2 32393  64.3467 230.7597 0003541  81.6074 326.8171  2.13103146119341
COSMOS 2436 [GLONASS-M] 
1 32395U 07065C   23116.47826179 -.00000007  00000+0  00000+0 0  9993
2 32395  64.3529 230.8153 0015955   4.4883 304.9205  2.13103001119271
